H1 CPF 01  gfz 2022 06 25 12  6762 tandemx   
H2 1003001  6202 36605    2022 06 25 12 59 42 2022 06 30 00 00 42   120 1 1  0 0 0
H9
10 0 59756  76302.000000  0   -4647609.209   5085652.975    -23906.196
10 0 59756  76422.000000  0   -4473529.525   5158442.137   -926351.527
10 0 59756  76542.000000  0   -4220867.781   5137403.932  -1812503.009
10 0 59756  76662.000000  0   -3895745.504   5021655.539  -2666798.365
10 0 59756  76782.000000  0   -3505550.805   4812096.933  -3474267.155
10 0 59756  76902.000000  0   -3058768.964   4511405.654  -4220796.065
10 0 59756  77022.000000  0   -2564795.404   4123996.825  -4893373.281
10 0 59756  77142.000000  0   -2033736.128   3655951.116  -5480308.640
10 0 59756  77262.000000  0   -1476200.341   3114912.680  -5971428.962
10 0 59756  77382.000000  0    -903088.244   2509957.191  -6358244.915
10 0 59756  77502.000000  0    -325379.209   1851434.420  -6634085.911
10 0 59756  77622.000000  0     246074.926   1150789.812  -6794203.743
10 0 59756  77742.000000  0     800748.368    420367.252  -6835845.997
10 0 59756  77862.000000  0    1328631.241   -326804.389  -6758299.003
10 0 59756  77982.000000  0    1820405.856  -1077239.039  -6562897.268
10 0 59756  78102.000000  0    2267606.879  -1817230.187  -6253002.609
10 0 59756  78222.000000  0    2662765.189  -2533094.788  -5833952.814
10 0 59756  78342.000000  0    2999532.740  -3211422.033  -5312981.002
10 0 59756  78462.000000  0    3272787.659  -3839325.388  -4699101.779
10 0 59756  78582.000000  0    3478714.296  -4404688.394  -4002964.134
10 0 59756  78702.000000  0    3614858.527  -4896401.060  -3236677.531
10 0 59756  78822.000000  0    3680158.741  -5304584.964  -2413610.314
10 0 59756  78942.000000  0    3674948.515  -5620800.394  -1548159.926
10 0 59756  79062.000000  0    3600931.100  -5838227.701   -655501.016
10 0 59756  79182.000000  0    3461125.795  -5951820.282    248684.867
10 0 59756  79302.000000  0    3259785.946  -5958422.806   1148491.326
10 0 59756  79422.000000  0    3002292.816  -5856853.198   2028075.447
10 0 59756  79542.000000  0    2695025.417  -5647942.904   2871947.019
10 0 59756  79662.000000  0    2345210.258  -5334536.314   3665248.502
10 0 59756  79782.000000  0    1960756.421  -4921450.774   4394021.637
10 0 59756  79902.000000  0    1550079.437  -4415397.199   5045456.543
10 0 59756  80022.000000  0    1121919.130  -3824863.620   5608117.354
10 0 59756  80142.000000  0     685153.652  -3159963.873   6072141.752
10 0 59756  80262.000000  0     248615.340  -2432255.836   6429407.639
10 0 59756  80382.000000  0    -179086.704  -1654535.161   6673668.249
10 0 59756  80502.000000  0    -589734.731   -840607.892   6800655.538
10 0 59756  80622.000000  0    -975659.017     -5043.771   6808151.406
10 0 59756  80742.000000  0   -1329880.327    837085.132   6696023.933
10 0 59756  80862.000000  0   -1646235.712   1670475.783   6466229.186
10 0 59756  80982.000000  0   -1919485.940   2479871.405   6122779.350
10 0 59756  81102.000000  0   -2145403.024   3250341.046   5671676.901
10 0 59756  81222.000000  0   -2320836.046   3967556.595   5120815.460
10 0 59756  81342.000000  0   -2443755.374   4618063.644   4479848.750
10 0 59756  81462.000000  0   -2513273.448   5189540.835   3760026.515
10 0 59756  81582.000000  0   -2529641.565   5671041.636   2973999.740
10 0 59756  81702.000000  0   -2494222.164   6053212.156   2135597.999
10 0 59756  81822.000000  0   -2409437.731   6328480.722   1259583.755
10 0 59756  81942.000000  0   -2278696.709   6491214.317    361387.191
10 0 59756  82062.000000  0   -2106298.541   6537837.586   -543172.861
10 0 59756  82182.000000  0   -1897320.514   6466911.707  -1438176.673
10 0 59756  82302.000000  0   -1657487.964   6279168.713  -2307895.786
10 0 59756  82422.000000  0   -1393031.334   5977497.570  -3137076.841
10 0 59756  82542.000000  0   -1110536.069   5566890.201  -3911210.873
10 0 59756  82662.000000  0    -816788.851   5054347.942  -4616787.418
10 0 59756  82782.000000  0    -518623.312   4448749.884  -5241526.283
10 0 59756  82902.000000  0    -222768.605   3760688.848  -5774584.654
10 0 59756  83022.000000  0      64296.048   3002276.677  -6206736.817
10 0 59756  83142.000000  0     336477.051   2186923.712  -6530522.411
10 0 59756  83262.000000  0     588189.705   1329099.671  -6740363.289
10 0 59756  83382.000000  0     814468.047    444078.317  -6832650.569
10 0 59756  83502.000000  0    1011058.999   -452330.451  -6805799.723
10 0 59756  83622.000000  0    1174499.487  -1344057.500  -6660273.906
10 0 59756  83742.000000  0    1302175.664  -2215054.484  -6398575.380
10 0 59756  83862.000000  0    1392364.361  -3049574.692  -6025208.232
10 0 59756  83982.000000  0    1444255.810  -3832454.052  -5546611.001
10 0 59756  84102.000000  0    1457956.069  -4549387.159  -4971055.560
10 0 59756  84222.000000  0    1434470.916  -5187190.093  -4308514.581
10 0 59756  84342.000000  0    1375670.068  -5734049.209  -3570500.500
10 0 59756  84462.000000  0    1284231.481  -6179749.779  -2769873.812
10 0 59756  84582.000000  0    1163568.200  -6515878.024  -1920624.511
10 0 59756  84702.000000  0    1017738.680  -6735992.412  -1037629.360
10 0 59756  84822.000000  0     851341.306  -6835758.454   -136388.852
10 0 59756  84942.000000  0     669396.643  -6813042.471    767250.278
10 0 59756  85062.000000  0     477220.325  -6667962.655   1657380.965
10 0 59756  85182.000000  0     280289.556  -6402895.232   2518325.304
10 0 59756  85302.000000  0      84106.668  -6022433.590   3334920.914
10 0 59756  85422.000000  0    -105937.278  -5533301.021   4092794.866
10 0 59756  85542.000000  0    -284694.806  -4944223.665   4778619.741
10 0 59756  85662.000000  0    -447386.666  -4265765.170   5380349.689
10 0 59756  85782.000000  0    -589715.748  -3510127.562   5887430.744
10 0 59756  85902.000000  0    -707968.340  -2690921.629   6290982.836
10 0 59756  86022.000000  0    -799100.344  -1822913.950   6583947.738
10 0 59756  86142.000000  0    -860807.013   -921757.960   6761205.703
10 0 59756  86262.000000  0    -891575.526     -3710.055   6819660.982
10 0 59756  86382.000000  0    -890719.244    914664.382   6758292.803
10 0 59757    102.000000  0    -858391.883   1816789.601   6578172.060
10 0 59757    222.000000  0    -795582.146   2686378.124   6282443.643
10 0 59757    342.000000  0    -704089.414   3507724.929   5876275.121
10 0 59757    462.000000  0    -586480.814   4265993.427   5366771.499
10 0 59757    582.000000  0    -446029.874   4947487.224   4762856.807
10 0 59757    702.000000  0    -286638.366   5539905.537   4075123.960
10 0 59757    822.000000  0    -112741.783   6032572.667   3315651.339
10 0 59757    942.000000  0      70797.426   6416640.258   2497796.187
10 0 59757   1062.000000  0     258808.796   6685260.815   1635956.209
10 0 59757   1182.000000  0     445942.627   6833715.924    745309.740
10 0 59757   1302.000000  0     626803.742   6859504.387   -158457.965
10 0 59757   1422.000000  0     796087.527   6762386.175  -1059439.733
10 0 59757   1542.000000  0     948713.300   6544379.773  -1941795.293
10 0 59757   1662.000000  0    1079952.088   6209715.181  -2790036.898
10 0 59757   1782.000000  0    1185546.584   5764743.416  -3589306.472
10 0 59757   1902.000000  0    1261820.374   5217805.034  -4325638.322
10 0 59757   2022.000000  0    1305773.537   4579061.352  -4986201.983
10 0 59757   2142.000000  0    1315162.501   3860293.493  -5559520.064
10 0 59757   2262.000000  0    1288562.281   3074675.929  -6035659.147
10 0 59757   2382.000000  0    1225410.370   2236527.703  -6406391.694
10 0 59757   2502.000000  0    1126031.430   1361048.486  -6665325.607
10 0 59757   2622.000000  0     991643.133    464044.782  -6808004.450
10 0 59757   2742.000000  0     824342.796   -438351.783  -6831976.168
10 0 59757   2862.000000  0     627074.899  -1329968.956  -6736829.645
10 0 59757   2982.000000  0     403580.287  -2194875.642  -6524199.416
10 0 59757   3102.000000  0     158328.212  -3017658.338  -6197741.996
10 0 59757   3222.000000  0    -103569.650  -3783692.616  -5763081.247
10 0 59757   3342.000000  0    -376460.335  -4479401.548  -5227720.249
10 0 59757   3462.000000  0    -654264.781  -5092498.443  -4600923.546
10 0 59757   3582.000000  0    -930606.231  -5612210.362  -3893568.283
10 0 59757   3702.000000  0   -1198949.022  -6029477.019  -3117964.951
10 0 59757   3822.000000  0   -1452744.668  -6337120.101  -2287650.197
10 0 59757   3942.000000  0   -1685582.432  -6529979.712  -1417154.422
10 0 59757   4062.000000  0   -1891340.439  -6605013.286   -521746.607
10 0 59757   4182.000000  0   -2064333.600  -6561352.981    382838.124
10 0 59757   4302.000000  0   -2199454.871  -6400319.480   1280682.182
10 0 59757   4422.000000  0   -2292305.783  -6125391.587   2155974.372
10 0 59757   4542.000000  0   -2339312.614  -5742131.946   2993297.617
10 0 59757   4662.000000  0   -2337824.754  -5258070.628   3777908.511
10 0 59757   4782.000000  0   -2286193.108  -4682550.338   4496002.192
10 0 59757   4902.000000  0   -2183827.156  -4026538.299   5134957.603
10 0 59757   5022.000000  0   -2031229.876  -3302408.620   5683560.016
10 0 59757   5142.000000  0   -1830008.356  -2523699.422   6132194.834
10 0 59757   5262.000000  0   -1582860.302  -1704853.672   6473010.380
10 0 59757   5382.000000  0   -1293538.139   -860947.505   6700049.968
10 0 59757   5502.000000  0    -966791.780     -7409.286   6809349.565
10 0 59757   5622.000000  0    -608290.965    840261.960   6799001.775
10 0 59757   5742.000000  0    -224526.832   1666777.359   6669187.973
10 0 59757   5862.000000  0     177305.651   2457333.797   6422175.373
10 0 59757   5982.000000  0     589442.096   3197878.938   6062279.449
10 0 59757   6102.000000  0    1003697.228   3875362.205   5595793.439
10 0 59757   6222.000000  0    1411625.791   4477968.549   5030883.981
10 0 59757   6342.000000  0    1804693.257   4995330.539   4377454.134
99
